{"type": "FeatureCollection", "features": [ {"type": "Feature", "properties": {"norad_id": 30096, "name": "FENGYUN 1C DEB", "group": "fengyun-1c-debris", "lat": -0.16502186791720222, "lon": 80.1543330648321, "alt_km": 844.4568146269885, "timestamp": "2025-12-26T03:50:12.367010+00:00", "meta": {"OBJECT_NAME": "FENGYUN 1C DEB", "OBJECT_ID": "1999-025QZ", "EPOCH": "2025-12-25T17:46:26.194080", "MEAN_MOTION": 14.31714216, "ECCENTRICITY": 0.0079712, "INCLINATION": 99.1465, "RA_OF_ASC_NODE": 79.6862, "ARG_OF_PERICENTER": 194.6634, "MEAN_ANOMALY": 165.2235, "EPHEMERIS_TYPE": 0, "CLASSIFICATION_TYPE": "U", "NORAD_CAT_ID": 30096, "ELEMENT_SET_NO": 999, "REV_AT_EPOCH": 98732, "BSTAR": 0.00032709, "MEAN_MOTION_DOT": 8.55e-06, "MEAN_MOTION_DDOT": 0}, "tle": {"line1": "1 30096U 99025QZ  25359.74058095  .00000855  00000+0  32709-3 0  9996", "line2": "2 30096  99.1465  79.6862 0079712 194.6634 165.2235 14.31714216987324"}}, "geometry": {"type": "Point", "coordinates": [80.1543330648321, -0.16502186791720222]}}, {"type": "Feature", "properties": {"norad_id": 30099, "name": "FENGYUN 1C DEB", "group": "fengyun-1c-debris", "lat": -35.958469376165944, "lon": 78.38314712019256, "alt_km": 832.4657379864257, "timestamp": "2025-12-26T03:50:12.367021+00:00", "meta": {"OBJECT_NAME": "FENGYUN 1C DEB", "OBJECT_ID": "1999-025RC", "EPOCH": "2025-12-25T04:41:26.564640", "MEAN_MOTION": 14.25955048, "ECCENTRICITY": 0.00616666, "INCLINATION": 98.539, "RA_OF_ASC_NODE": 71.1862, "ARG_OF_PERICENTER": 208.0053, "MEAN_ANOMALY": 207.078, "EPHEMERIS_TYPE": 0, "CLASSIFICATION_TYPE": "U", "NORAD_CAT_ID": 30099, "ELEMENT_SET_NO": 999, "REV_AT_EPOCH": 98367, "BSTAR": 0.00030166497, "MEAN_MOTION_DOT": 6.91e-06, "MEAN_MOTION_DDOT": 0}, "tle": {"line1": "1 30099U 99025RC  25359.19544635  .00000691  00000+0  30166-3 0  9991", "line2": "2 30099  98.5390  71.1862 0061666 208.0053 207.0780 14.25955048983675"}}, "geometry": {"type": "Point", "coordinates": [78.38314712019256, -35.958469376165944]}}, {"type": "Feature", "properties": {"norad_id": 30102, "name": "FENGYUN 1C DEB", "group": "fengyun-1c-debris", "lat": -37.61187750270481, "lon": 13.794847870713028, "alt_km": 722.9781145800171, "timestamp": "2025-12-26T03:50:12.367032+00:00", "meta": {"OBJECT_NAME": "FENGYUN 1C DEB", "OBJECT_ID": "1999-025RF", "EPOCH": "2025-12-24T23:35:16.919808", "MEAN_MOTION": 14.22147873, "ECCENTRICITY": 0.01410054, "INCLINATION": 98.379, "RA_OF_ASC_NODE": 6.1558, "ARG_OF_PERICENTER": 324.3912, "MEAN_ANOMALY": 94.9394, "EPHEMERIS_TYPE": 0, "CLASSIFICATION_TYPE": "U", "NORAD_CAT_ID": 30102, "ELEMENT_SET_NO": 999, "REV_AT_EPOCH": 98132, "BSTAR": 0.00028715723, "MEAN_MOTION_DOT": 6.62e-06, "MEAN_MOTION_DDOT": 0}, "tle": {"line1": "1 30102U 99025RF  25358.98283472  .00000662  00000+0  28716-3 0  9997", "line2": "2 30102  98.3790   6.1558 0141005 324.3912  94.9394 14.22147873981324"}}, "geometry": {"type": "Point", "coordinates": [13.794847870713028, -37.61187750270481]}}, {"type": "Feature", "properties": {"norad_id": 30103, "name": "FENGYUN 1C DEB", "group": "fengyun-1c-debris", "lat": 79.42804375950917, "lon": -136.86851725347498, "alt_km": 756.4184306355446, "timestamp": "2025-12-26T03:50:12.367042+00:00", "meta": {"OBJECT_NAME": "FENGYUN 1C DEB", "OBJECT_ID": "1999-025RG", "EPOCH": "2025-12-25T12:46:27.967296", "MEAN_MOTION": 14.24884179, "ECCENTRICITY": 0.0064325, "INCLINATION": 99.2463, "RA_OF_ASC_NODE": 341.685, "ARG_OF_PERICENTER": 83.8241, "MEAN_ANOMALY": 33.617, "EPHEMERIS_TYPE": 0, "CLASSIFICATION_TYPE": "U", "NORAD_CAT_ID": 30103, "ELEMENT_SET_NO": 999, "REV_AT_EPOCH": 98101, "BSTAR": 0.00044451, "MEAN_MOTION_DOT": 1.013e-05, "MEAN_MOTION_DDOT": 0}, "tle": {"line1": "1 30103U 99025RG  25359.53226814  .00001013  00000+0  44451-3 0  9992", "line2": "2 30103  99.2463 341.6850 0064325  83.8241  33.6170 14.24884179981012"}}, "geometry": {"type": "Point", "coordinates": [-136.86851725347498, 79.42804375950917]}}, {"type": "Feature", "properties": {"norad_id": 30104, "name": "FENGYUN 1C DEB", "group": "fengyun-1c-debris", "lat": -20.62540113084277, "lon": -160.21830282893387, "alt_km": 810.7319656647587, "timestamp": "2025-12-26T03:50:12.367052+00:00", "meta": {"OBJECT_NAME": "FENGYUN 1C DEB", "OBJECT_ID": "1999-025RH", "EPOCH": "2025-12-25T13:01:50.746944", "MEAN_MOTION": 14.25706379, "ECCENTRICITY": 0.0074137, "INCLINATION": 98.3595, "RA_OF_ASC_NODE": 196.0208, "ARG_OF_PERICENTER": 70.8799, "MEAN_ANOMALY": 344.6839, "EPHEMERIS_TYPE": 0, "CLASSIFICATION_TYPE": "U", "NORAD_CAT_ID": 30104, "ELEMENT_SET_NO": 999, "REV_AT_EPOCH": 98075, "BSTAR": 0.000647, "MEAN_MOTION_DOT": 1.539e-05, "MEAN_MOTION_DDOT": 0}, "tle": {"line1": "1 30104U 99025RH  25359.54294846  .00001539  00000+0  64700-3 0  9996", "line2": "2 30104  98.3595 196.0208 0074137  70.8799 344.6839 14.25706379980757"}}, "geometry": {"type": "Point", "coordinates": [-160.21830282893387, -20.62540113084277]}}, {"type": "Feature", "properties": {"norad_id": 30105, "name": "FENGYUN 1C DEB", "group": "fengyun-1c-debris", "lat": -60.6824344652601, "lon": 150.23329538986536, "alt_km": 955.5115572949917, "timestamp": "2025-12-26T03:50:12.367063+00:00", "meta": {"OBJECT_NAME": "FENGYUN 1C DEB", "OBJECT_ID": "1999-025RJ", "EPOCH": "2025-12-25T09:48:36.374976", "MEAN_MOTION": 14.21423843, "ECCENTRICITY": 0.0199467, "INCLINATION": 98.5948, "RA_OF_ASC_NODE": 345.1249, "ARG_OF_PERICENTER": 37.3974, "MEAN_ANOMALY": 324.0896, "EPHEMERIS_TYPE": 0, "CLASSIFICATION_TYPE": "U", "NORAD_CAT_ID": 30105, "ELEMENT_SET_NO": 999, "REV_AT_EPOCH": 97942, "BSTAR": 0.00042226, "MEAN_MOTION_DOT": 1.084e-05, "MEAN_MOTION_DDOT": 0}, "tle": {"line1": "1 30105U 99025RJ  25359.40875434  .00001084  00000+0  42226-3 0  9994", "line2": "2 30105  98.5948 345.1249 0199467  37.3974 324.0896 14.21423843979426"}}, "geometry": {"type": "Point", "coordinates": [150.23329538986536, -60.6824344652601]}}, {"type": "Feature", "properties": {"norad_id": 30106, "name": "FENGYUN 1C DEB", "group": "fengyun-1c-debris", "lat": 78.79822722012926, "lon": -143.38872709148058, "alt_km": 590.9885659475713, "timestamp": "2025-12-26T03:50:12.367074+00:00", "meta": {"OBJECT_NAME": "FENGYUN 1C DEB", "OBJECT_ID": "1999-025RK", "EPOCH": "2025-12-25T18:02:22.630848", "MEAN_MOTION": 14.86051999, "ECCENTRICITY": 0.0047586, "INCLINATION": 98.9238, "RA_OF_ASC_NODE": 268.6604, "ARG_OF_PERICENTER": 153.9277, "MEAN_ANOMALY": 267.2196, "EPHEMERIS_TYPE": 0, "CLASSIFICATION_TYPE": "U", "NORAD_CAT_ID": 30106, "ELEMENT_SET_NO": 999, "REV_AT_EPOCH": 98738, "BSTAR": 0.0042409, "MEAN_MOTION_DOT": 0.00038001, "MEAN_MOTION_DDOT": 0}, "tle": {"line1": "1 30106U 99025RK  25359.75165082  .00038001  00000+0  42409-2 0  9995", "line2": "2 30106  98.9238 268.6604 0047586 153.9277 267.2196 14.86051999987387"}}, "geometry": {"type": "Point", "coordinates": [-143.38872709148058, 78.79822722012926]}}, {"type": "Feature", "properties": {"norad_id": 30107, "name": "FENGYUN 1C DEB", "group": "fengyun-1c-debris", "lat": 6.380427078894898, "lon": -122.04793764426051, "alt_km": 804.9429206853574, "timestamp": "2025-12-26T03:50:12.367084+00:00", "meta": {"OBJECT_NAME": "FENGYUN 1C DEB", "OBJECT_ID": "1999-025RL", "EPOCH": "2025-12-25T15:07:23.752992", "MEAN_MOTION": 14.14429942, "ECCENTRICITY": 0.0126525, "INCLINATION": 98.8452, "RA_OF_ASC_NODE": 56.4297, "ARG_OF_PERICENTER": 238.6875, "MEAN_ANOMALY": 120.1861, "EPHEMERIS_TYPE": 0, "CLASSIFICATION_TYPE": "U", "NORAD_CAT_ID": 30107, "ELEMENT_SET_NO": 999, "REV_AT_EPOCH": 97743, "BSTAR": 0.00014244, "MEAN_MOTION_DOT": 2.5e-06, "MEAN_MOTION_DDOT": 0}, "tle": {"line1": "1 30107U 99025RL  25359.63013603  .00000250  00000+0  14244-3 0  9996", "line2": "2 30107  98.8452  56.4297 0126525 238.6875 120.1861 14.14429942977431"}}, "geometry": {"type": "Point", "coordinates": [-122.04793764426051, 6.380427078894898]}}, {"type": "Feature", "properties": {"norad_id": 30108, "name": "FENGYUN 1C DEB", "group": "fengyun-1c-debris", "lat": -29.109112761271692, "lon": 160.80647055650155, "alt_km": 938.4212984530022, "timestamp": "2025-12-26T03:50:12.367095+00:00", "meta": {"OBJECT_NAME": "FENGYUN 1C DEB", "OBJECT_ID": "1999-025RM", "EPOCH": "2025-12-25T10:37:18.307200", "MEAN_MOTION": 14.17197084, "ECCENTRICITY": 0.0196948, "INCLINATION": 98.6614, "RA_OF_ASC_NODE": 344.9759, "ARG_OF_PERICENTER": 345.7129, "MEAN_ANOMALY": 167.7898, "EPHEMERIS_TYPE": 0, "CLASSIFICATION_TYPE": "U", "NORAD_CAT_ID": 30108, "ELEMENT_SET_NO": 999, "REV_AT_EPOCH": 97778, "BSTAR": 0.00041984, "MEAN_MOTION_DOT": 9.79e-06, "MEAN_MOTION_DDOT": 0}, "tle": {"line1": "1 30108U 99025RM  25359.44257300  .00000979  00000+0  41984-3 0  9999", "line2": "2 30108  98.6614 344.9759 0196948 345.7129 167.7898 14.17197084977783"}}, "geometry": {"type": "Point", "coordinates": [160.80647055650155, -29.109112761271692]}}, {"type": "Feature", "properties": {"norad_id": 30109, "name": "FENGYUN 1C DEB", "group": "fengyun-1c-debris", "lat": -19.039860543967507, "lon": -3.9284221184321875, "alt_km": 939.9560334936859, "timestamp": "2025-12-26T03:50:12.367105+00:00", "meta": {"OBJECT_NAME": "FENGYUN 1C DEB", "OBJECT_ID": "1999-025RN", "EPOCH": "2025-12-25T13:15:33.774336", "MEAN_MOTION": 14.17567716, "ECCENTRICITY": 0.0167798, "INCLINATION": 98.5087, "RA_OF_ASC_NODE": 352.5282, "ARG_OF_PERICENTER": 195.2353, "MEAN_ANOMALY": 286.6582, "EPHEMERIS_TYPE": 0, "CLASSIFICATION_TYPE": "U", "NORAD_CAT_ID": 30109, "ELEMENT_SET_NO": 999, "REV_AT_EPOCH": 97733, "BSTAR": 0.00029207, "MEAN_MOTION_DOT": 6.39e-06, "MEAN_MOTION_DDOT": 0}, "tle": {"line1": "1 30109U 99025RN  25359.55247424  .00000639  00000+0  29207-3 0  9995", "line2": "2 30109  98.5087 352.5282 0167798 195.2353 286.6582 14.17567716977336"}}, "geometry": {"type": "Point", "coordinates": [-3.9284221184321875, -19.039860543967507]}}]}